FLOCK 4A-17             
1 44088U 19018L   22305.16101392  .00021650  00000+0  56620-3 0  9993
2 44088  97.2951   4.1899 0008545 350.2873   9.8206 15.38730358199658
FLOCK 4A-19             
1 44090U 19018N   22305.12851664  .00070289  00000+0  18058-2 0  9990
2 44090  97.2938   4.1810 0009826 351.0082   9.0986 15.38993398197338
FLOCK 4A-6              
1 44094U 19018S   22305.11278223  .00021141  00000+0  55464-3 0  9993
2 44094  97.2952   4.3262 0007430 358.0417   2.0798 15.38646746199663
FLOCK 4A-5              
1 44095U 19018T   22305.13783081  .00063628  00000+0  17131-2 0  9993
2 44095  97.2946   3.6938 0007381 358.4077   1.7143 15.37598462199615
FLOCK 4A-11             
1 44096U 19018U   22305.14616062  .00057711  00000+0  14982-2 0  9996
2 44096  97.2948   4.4686 0007491   2.3763 357.7517 15.38750581199663
FLOCK 4A-9              
1 44098U 19018W   22305.12311704  .00046695  00000+0  11833-2 0  9992
2 44098  97.2957   4.5343 0007302   6.0589 354.0743 15.39546839199665
FLOCK 4P-10             
1 44808U 19081E   22304.61945096  .00015373  00000+0  49170-3 0  9996
2 44808  97.3850   8.8357 0011349  98.1086 262.1443 15.32451441162718
FLOCK 4P-11             
1 44809U 19081F   22305.11749675  .00043247  00000+0  13831-2 0  9993
2 44809  97.3845   9.3598 0011378  95.9583 264.2956 15.32234997162790
FLOCK 4P-4              
1 44811U 19081H   22305.19109082  .00045470  00000+0  13477-2 0  9992
2 44811  97.3917  10.5242 0009781  85.1028 275.1331 15.34660751162840
FLOCK 4P-3              
1 44812U 19081J   22305.11323056  .00043483  00000+0  12492-2 0  9992
2 44812  97.3893  10.5867 0009415  86.3330 273.8990 15.35657184162843
FLOCK 4P-1              
1 44814U 19081L   22304.44829081  .00032527  00000+0  10571-2 0  9991
2 44814  97.3866   8.6265 0009694  96.4233 263.8113 15.31800528162673
FLOCK 4P-7              
1 44816U 19081N   22305.16336966  .00052962  00000+0  16582-2 0  9991
2 44816  97.3852   9.5758 0009333  86.4517 273.7792 15.32884858162808
FLOCK 4P-5              
1 44818U 19081Q   22304.80358798  .00019514  00000+0  62838-3 0  9992
2 44818  97.3859   9.3209 0009387  91.2584 268.9733 15.32203333162751
SKYSAT-C14              
1 45788U 20038BL  22304.50723807  .00050130  00000+0  56553-3 0  9993
2 45788  52.9921  22.8859 0001455  60.4768 299.6389 15.62031601135899
SKYSAT-C16              
1 45789U 20038BM  22304.85383858  .00052230  00000+0  57726-3 0  9996
2 45789  52.9931  20.8472 0006903 319.5479  40.5020 15.62518488135944
SKYSAT-C15              
1 45790U 20038BN  22305.37873511  .00052641  00000+0  58033-3 0  9994
2 45790  52.9916  18.3023 0002257 231.7899 128.2911 15.62603662136024
SKYSAT-C17              
1 46179U 20057BQ  22304.76019614  .00045386  00000+0  52532-3 0  9991
2 46179  52.9897 114.4086 0002748 136.5198 223.6031 15.61407991126523
SKYSAT-C18              
1 46180U 20057BR  22304.86534939  .00045938  00000+0  53265-3 0  9993
2 46180  52.9842 113.9325 0005096 263.9144  96.1288 15.61346632125249
SKYSAT-C19              
1 46235U 20057BS  22304.86540871  .00043620  00000+0  54050-3 0  9995
2 46235  52.9865 110.4481 0009336 342.8560  17.2134 15.59597237125295
FLOCK 4V-11             
1 46285U 20061P   22304.15090353  .00019450  00000+0  99771-3 0  9995
2 46285  97.4335  11.5330 0004306 133.9804 226.1785 15.16572645119040
FLOCK 4V-14             
1 46286U 20061Q   22304.14348912  .00008845  00000+0  45649-3 0  9993
2 46286  97.4343  11.5483 0004264 126.8019 233.3605 15.16548489119041
FLOCK 4V-8              
1 46288U 20061S   22304.13652590  .00020086  00000+0  10301-2 0  9991
2 46288  97.4339  11.5344 0003427 136.5676 223.5828 15.16576648118956
FLOCK 4V-6              
1 46289U 20061T   22304.45868498  .00027750  00000+0  14150-2 0  9994
2 46289  97.4350  11.9080 0002461 142.6426 217.4979 15.16711891119095
FLOCK 4V-5              
1 46290U 20061U   22304.84434969  .00006828  00000+0  37769-3 0  9996
2 46290  97.4348  11.8230 0003481 139.1050 221.0443 15.14175432119121
FLOCK 4V-7              
1 46291U 20061V   22304.16573217  .00018067  00000+0  92595-3 0  9998
2 46291  97.4339  11.6742 0003129 130.3854 229.7653 15.16621927118946
FLOCK 4V-10             
1 46296U 20061AA  22304.64305584  .00020445  00000+0  10458-2 0  9996
2 46296  97.4347  12.3051 0002143  91.2805 268.8673 15.16665894119091
FLOCK 4V-13             
1 46297U 20061AB  22305.16331661  .00021465  00000+0  10997-2 0  9991
2 46297  97.4349  12.8326 0002217  93.4867 266.6620 15.16601047119153
FLOCK 4V-1              
1 46313U 20061AT  22304.42391269  .00013164  00000+0  67649-3 0  9992
2 46313  97.4356  12.4622 0004023  76.9234 283.2448 15.16596279119070
FLOCK 4V-4              
1 46314U 20061AU  22305.17870705  .00018731  00000+0  95873-3 0  9998
2 46314  97.4346  13.1328 0004893  76.4290 283.7488 15.16653656119233
FLOCK 4V-2              
1 46321U 20061BB  22304.46551963  .00021161  00000+0  10271-2 0  9998
2 46321  97.4350  13.1693 0004155  77.9276 282.2424 15.18492175119055
FLOCK 4V-16             
1 46527U 20061BD  22305.20200696  .00010962  00000+0  45363-3 0  9991
2 46527  97.3854  14.0140 0006902  10.1705 349.9671 15.24098988115687
FLOCK 4V-15             
1 46528U 20061BE  22305.41499090  .00033175  00000+0  13619-2 0  9992
2 46528  97.3830  14.6300 0003659  55.5358 304.6225 15.24138402116106
FLOCK 4V-17             
1 46529U 20061BF  22304.45848560  .00010422  00000+0  43356-3 0  9998
2 46529  97.3801  13.3294 0003423  42.2310 317.9191 15.23948640115158
FLOCK 4V-18             
1 46597U 20061BG  22304.63517028  .00010205  00000+0  42464-3 0  9993
2 46597  97.3901  14.1125 0006737  23.0808 337.0731 15.23930362114543
FLOCK 4V-19             
1 46609U 20061BH  22304.20305885  .00010688  00000+0  44424-3 0  9999
2 46609  97.3779  12.9002 0003063  26.7738 333.3657 15.23971890114043
FLOCK 4V-20             
1 46612U 20061BJ  22304.50028621  .00009782  00000+0  42313-3 0  9994
2 46612  97.3895  13.6950 0007030  29.4333 330.7298 15.22625478113571
FLOCK 4V-22             
1 46735U 20061BL  22304.41898887  .00042881  00000+0  17500-2 0  9995
2 46735  97.3731  12.4566 0005838  14.9659 345.1743 15.24267309112414
FLOCK 4V-23             
1 46737U 20061BM  22305.50339966  .00012016  00000+0  50018-3 0  9995
2 46737  97.3799  14.1827 0003258   0.2089 359.9149 15.23890624112513
FLOCK 4V-24             
1 46738U 20061BN  22304.64286358  .00016412  00000+0  67860-3 0  9993
2 46738  97.3955  14.0923 0007089  43.1423 317.0357 15.24029188111951
FLOCK 4V-25             
1 46812U 20061BP  22304.93214446  .00012901  00000+0  53380-3 0  9998
2 46812  97.3769  13.6855 0004926   0.8878 359.2364 15.24070494111645
FLOCK 4E'-1             
1 46813U 20077A   22305.45880258  .00012862  00000+0  51371-3 0  9998
2 46813  97.4047   6.4770 0008794 296.9066  63.1273 15.25237943111337
FLOCK 4E'-7             
1 46814U 20077B   22305.54111866  .00014671  00000+0  58226-3 0  9997
2 46814  97.4050   6.6930 0009542 292.4092  67.6135 15.25412442111351
FLOCK 4E'-9             
1 46815U 20077C   22305.40902085  .00009301  00000+0  41614-3 0  9991
2 46815  97.4030   5.6480 0009575 288.8327  71.1870 15.21469499111294
FLOCK 4E'-8             
1 46816U 20077D   22305.39688223  .00016400  00000+0  58379-3 0  9999
2 46816  97.4059   7.3540 0007060 266.4889  93.5543 15.29009146111375
FLOCK 4E'-5             
1 46817U 20077E   22305.37938118  .00029141  00000+0  11539-2 0  9991
2 46817  97.4077   7.2536 0010747 272.7818  87.2190 15.25332208111369
FLOCK 4E'-3             
1 46819U 20077G   22305.49353637  .00030629  00000+0  12089-2 0  9997
2 46819  97.4049   7.1708 0011282 268.0202  91.9744 15.25425028111382
FLOCK 4E'-2             
1 46820U 20077H   22305.35630031  .00010365  00000+0  41555-3 0  9996
2 46820  97.4112   7.5545 0010755 257.9564 102.0468 15.25148661111360
FLOCK 4E'-4             
1 46821U 20077J   22305.37608837  .00010206  00000+0  43616-3 0  9992
2 46821  97.4073   6.9945 0011810 253.2595 106.7346 15.22988363111319
FLOCK 4E'-6             
1 46822U 20077K   22304.44101733  .00009397  00000+0  41121-3 0  9991
2 46822  97.4057   5.1559 0009877 270.1389  89.8756 15.22224771111180
FLOCK 4V-26             
1 46825U 20061BQ  22304.91256109  .00013569  00000+0  56146-3 0  9996
2 46825  97.3933  14.3088 0007142  33.0399 327.1225 15.24045801111180
FLOCK 4S-22             
1 47452U 21006AR  22304.12978120  .00007608  00000+0  36929-3 0  9994
2 47452  97.4281   0.9449 0010648 155.8947 204.2788 15.18709476 97846
FLOCK 4S-21             
1 47456U 21006AV  22304.59467666  .00011595  00000+0  56058-3 0  9992
2 47456  97.4284   1.4568 0010553 154.2481 205.9280 15.18724231 97911
FLOCK 4S-11             
1 47462U 21006BB  22304.60832055  .00006727  00000+0  36580-3 0  9998
2 47462  97.4240 359.4187 0008027 176.1793 183.9502 15.14767852 97807
FLOCK 4S-33             
1 47469U 21006BJ  22304.15983603  .00007513  00000+0  36463-3 0  9995
2 47469  97.4240   0.2971 0006735 166.9141 193.2269 15.18746103 97820
FLOCK 4S-12             
1 47471U 21006BL  22304.61600962  .00007059  00000+0  34288-3 0  9991
2 47471  97.4271   1.0240 0007565 170.0727 190.0658 15.18732535 97891
FLOCK 4S-13             
1 47472U 21006BM  22304.40614488  .00020215  00000+0  97437-3 0  9991
2 47472  97.4296   1.0609 0007429 166.8199 193.3231 15.18727208 97864
FLOCK 4S-35             
1 47473U 21006BN  22304.44001714  .00032740  00000+0  14539-2 0  9995
2 47473  97.4271   1.3664 0006466 168.3406 191.7980 15.21459261 97891
FLOCK 4S-8              
1 47474U 21006BP  22304.41870115  .00025994  00000+0  13501-2 0  9993
2 47474  97.4228 359.7757 0008025 172.4354 187.7001 15.16052459 97822
FLOCK 4S-31             
1 47475U 21006BQ  22304.90116412  .00026908  00000+0  12582-2 0  9995
2 47475  97.4222   0.9850 0006887 160.3351 199.8150 15.19723460 97945
FLOCK 4S-34             
1 47477U 21006BS  22304.41332054  .00019911  00000+0  96167-3 0  9993
2 47477  97.4278   0.9291 0007084 164.9822 195.1624 15.18661315 97865
